OBJECT_NAME,OBJECT_ID,EPOCH,MEAN_MOTION,ECCENTRICITY,INCLINATION,RA_OF_ASC_NODE,ARG_OF_PERICENTER,MEAN_ANOMALY,EPHEMERIS_TYPE,CLASSIFICATION_TYPE,NORAD_CAT_ID,ELEMENT_SET_NO,REV_AT_EPOCH,BSTAR,MEAN_MOTION_DOT,MEAN_MOTION_DDOT
STARLINK-31532,2024-060B,2026-07-07T08:27:25.333920,15.27568175,.0003681,43.0056,304.0722,288.2763,71.7688,0,U,59349,999,12841,.18889E-3,.4937E-4,0
STARLINK-31593,2024-060C,2026-07-07T09:18:59.342112,15.27556177,.0001441,42.9991,303.4758,257.6730,102.3960,0,U,59350,999,12837,.2079E-3,.5459E-4,0
STARLINK-31555,2024-060D,2026-07-07T08:38:29.629824,15.27571230,.0002743,42.9983,304.1230,156.0007,204.0973,0,U,59351,999,12841,.15774E-3,.4079E-4,0
STARLINK-31561,2024-060E,2026-07-07T09:15:18.617760,15.27565944,.0001491,43.0042,303.4621,270.1839,89.8842,0,U,59352,999,12837,.22324E-3,.5883E-4,0
STARLINK-31413,2024-060F,2026-07-07T08:01:29.376192,15.27571853,.0001819,43.0026,303.9397,253.0149,107.0503,0,U,59353,999,12836,.96656E-4,.2398E-4,0
STARLINK-31422,2024-060G,2026-07-07T09:09:58.292352,15.27587666,.0001507,43.0037,304.2941,275.2406,84.8274,0,U,59354,999,12836,.5741E-3,.15573E-3,0
STARLINK-31416,2024-060H,2026-07-07T08:32:56.438592,15.27579284,.0002022,43.0035,304.0991,284.0350,76.0277,0,U,59355,999,12836,.10184E-4,.18E-6,0
STARLINK-31552,2024-060J,2026-07-07T09:04:24.188736,15.27572003,.0001344,43.0064,304.2807,277.9735,82.0964,0,U,59356,999,12836,.95168E-4,.2357E-4,0
STARLINK-31557,2024-060K,2026-07-07T07:21:29.759616,15.27583019,.0001773,43.0022,300.2296,274.5088,85.5561,0,U,59357,999,12840,.49313E-3,.13333E-3,0
STARLINK-31559,2024-060L,2026-07-07T09:46:46.399008,15.27566437,.000348,42.9989,303.6244,295.7606,64.2886,0,U,59358,999,12837,.32236E-5,-.174E-5,0
STARLINK-31501,2024-060M,2026-07-07T08:53:18.283200,15.27573605,.0001315,43.0032,304.2087,215.9162,144.1601,0,U,59359,999,12836,.13335E-3,.3408E-4,0
STARLINK-31549,2024-060N,2026-07-07T09:30:05.607072,15.27572001,.0001501,43.0004,303.5368,226.4333,133.6394,0,U,59360,999,12837,.80334E-4,.1949E-4,0
STARLINK-31560,2024-060P,2026-07-07T08:44:04.309728,15.27569097,.0002019,43.0024,304.1539,250.3036,109.7598,0,U,59361,999,12836,.29029E-3,.7732E-4,0
STARLINK-31571,2024-060Q,2026-07-07T08:47:44.589984,15.27578269,.0001494,43.0043,304.1726,219.5328,140.5415,0,U,59362,999,12836,.20396E-3,.5354E-4,0
STARLINK-31553,2024-060R,2026-07-07T08:32:29.923296,15.27563378,.0002103,43.0062,297.1664,286.7837,73.2783,0,U,59363,999,12844,-.40573E-5,-.374E-5,0
STARLINK-31547,2024-060S,2026-07-07T08:14:29.154336,15.27549135,.000171,43.0049,292.7572,283.0230,77.0431,0,U,59364,999,12849,.24589E-3,.6504E-4,0
STARLINK-31537,2024-060T,2026-07-07T08:58:51.337920,15.27567974,.00018,43.0074,304.2343,270.0780,89.9865,0,U,59365,999,12836,.23726E-3,.627E-4,0
STARLINK-31451,2024-060U,2026-07-07T07:50:24.186048,15.27555097,.0001994,43.0035,303.8777,208.6983,151.3759,0,U,59366,999,12836,.22845E-3,.6025E-4,0
STARLINK-31428,2024-060V,2026-07-07T09:41:11.822784,15.27592651,.0001469,43.0030,303.5949,240.1275,119.9431,0,U,59367,999,12837,.46896E-4,.1029E-4,0
STARLINK-31419,2024-060W,2026-07-07T08:16:16.519296,15.27584547,.0001178,43.0020,304.0070,250.4584,109.6141,0,U,59368,999,12836,.5711E-4,.131E-4,0
STARLINK-31583,2024-060X,2026-07-07T07:21:03.252096,15.27566837,.0004164,43.0004,293.3399,304.8229,55.2231,0,U,59369,999,12848,-.24392E-4,-.934E-5,0
STARLINK-31461,2024-060Y,2026-07-07T07:37:40.736640,15.27566144,.000091,42.9988,293.4206,188.0581,172.0256,0,U,59370,999,12842,.66644E-4,.1572E-4,0
STARLINK-31641,2024-062A,2026-07-07T01:07:02.656128,15.34423068,.0001382,53.1593,62.1125,98.0651,262.0508,0,U,59374,999,12792,.71082E-3,.23734E-3,0
STARLINK-31430,2024-062B,2026-07-06T22:57:00.116640,15.34408016,.0000917,53.1575,62.9733,111.4854,248.6246,0,U,59375,999,12791,.98613E-4,.2958E-4,0
STARLINK-31695,2024-062C,2026-07-06T21:16:20.977824,15.34398147,.0001155,53.1595,61.1140,81.0434,279.0699,0,U,59376,999,12789,.21195E-3,.6791E-4,0
STARLINK-31716,2024-062D,2026-07-06T17:46:25.095936,15.30185131,.0000757,53.1614,14.0356,80.3404,279.7682,0,U,59377,999,12853,-.11525E-4,-.7E-5,0
STARLINK-31710,2024-062E,2026-07-06T20:55:07.554144,15.34408092,.0001169,53.1609,61.0204,84.4840,275.6296,0,U,59378,999,12789,.12954E-3,.4004E-4,0
STARLINK-31698,2024-062F,2026-07-07T01:18:18.419040,15.34431383,.0001205,53.1614,60.0413,92.5020,267.6120,0,U,59379,999,12792,.49692E-4,.1305E-4,0
STARLINK-31680,2024-062G,2026-07-06T22:08:31.421760,15.34410029,.0001646,53.1584,62.7562,80.6946,279.4243,0,U,59380,999,12787,.29167E-3,.9494E-4,0
STARLINK-31713,2024-062H,2026-07-06T21:56:25.166688,15.34397702,.0001174,53.1593,62.7080,91.7207,268.3930,0,U,59381,999,12787,.21243E-3,.6807E-4,0
