STARLINK-31532          
1 59349U 24060B   26188.35237655  .00004937  00000+0  18889-3 0  9992
2 59349  43.0056 304.0722 0003681 288.2763  71.7688 15.27568175128412
STARLINK-31593          
1 59350U 24060C   26188.38818683  .00005459  00000+0  20790-3 0  9997
2 59350  42.9991 303.4758 0001441 257.6730 102.3960 15.27556177128376
STARLINK-31555          
1 59351U 24060D   26188.36006516  .00004079  00000+0  15774-3 0  9993
2 59351  42.9983 304.1230 0002743 156.0007 204.0973 15.27571230128412
STARLINK-31561          
1 59352U 24060E   26188.38563215  .00005883  00000+0  22324-3 0  9993
2 59352  43.0042 303.4621 0001491 270.1839  89.8842 15.27565944128371
STARLINK-31413          
1 59353U 24060F   26188.33436778  .00002398  00000+0  96656-4 0  9990
2 59353  43.0026 303.9397 0001819 253.0149 107.0503 15.27571853128369
STARLINK-31422          
1 59354U 24060G   26188.38192468  .00015573  00000+0  57410-3 0  9994
2 59354  43.0037 304.2941 0001507 275.2406  84.8274 15.27587666128363
STARLINK-31416          
1 59355U 24060H   26188.35620878  .00000018  00000+0  10184-4 0  9999
2 59355  43.0035 304.0991 0002022 284.0350  76.0277 15.27579284128367
STARLINK-31552          
1 59356U 24060J   26188.37805774  .00002357  00000+0  95168-4 0  9995
2 59356  43.0064 304.2807 0001344 277.9735  82.0964 15.27572003128364
STARLINK-31557          
1 59357U 24060K   26188.30659444  .00013333  00000+0  49313-3 0  9996
2 59357  43.0022 300.2296 0001773 274.5088  85.5561 15.27583019128402
STARLINK-31559          
1 59358U 24060L   26188.40748147 -.00000174  00000+0  32236-5 0  9995
2 59358  42.9989 303.6244 0003480 295.7606  64.2886 15.27566437128376
STARLINK-31501          
1 59359U 24060M   26188.37035050  .00003408  00000+0  13335-3 0  9993
2 59359  43.0032 304.2087 0001315 215.9162 144.1601 15.27573605128363
STARLINK-31549          
1 59360U 24060N   26188.39589823  .00001949  00000+0  80334-4 0  9991
2 59360  43.0004 303.5368 0001501 226.4333 133.6394 15.27572001128374
STARLINK-31560          
1 59361U 24060P   26188.36393877  .00007732  00000+0  29029-3 0  9990
2 59361  43.0024 304.1539 0002019 250.3036 109.7598 15.27569097128365
STARLINK-31571          
1 59362U 24060Q   26188.36648831  .00005354  00000+0  20396-3 0  9990
2 59362  43.0043 304.1726 0001494 219.5328 140.5415 15.27578269128364
STARLINK-31553          
1 59363U 24060R   26188.35590189 -.00000374  00000+0 -40573-5 0  9992
2 59363  43.0062 297.1664 0002103 286.7837  73.2783 15.27563378128441
STARLINK-31547          
1 59364U 24060S   26188.34339299  .00006504  00000+0  24589-3 0  9991
2 59364  43.0049 292.7572 0001710 283.0230  77.0431 15.27549135128498
STARLINK-31537          
1 59365U 24060T   26188.37420530  .00006270  00000+0  23726-3 0  9996
2 59365  43.0074 304.2343 0001800 270.0780  89.9865 15.27567974128368
STARLINK-31451          
1 59366U 24060U   26188.32666882  .00006025  00000+0  22845-3 0  9993
2 59366  43.0035 303.8777 0001994 208.6983 151.3759 15.27555097128367
STARLINK-31428          
1 59367U 24060V   26188.40360906  .00001029  00000+0  46896-4 0  9993
2 59367  43.0030 303.5949 0001469 240.1275 119.9431 15.27592651128378
STARLINK-31419          
1 59368U 24060W   26188.34463564  .00001310  00000+0  57110-4 0  9995
2 59368  43.0020 304.0070 0001178 250.4584 109.6141 15.27584547128361
STARLINK-31583          
1 59369U 24060X   26188.30628764 -.00000934  00000+0 -24392-4 0  9996
2 59369  43.0004 293.3399 0004164 304.8229  55.2231 15.27566837128487
STARLINK-31461          
1 59370U 24060Y   26188.31783260  .00001572  00000+0  66644-4 0  9995
2 59370  42.9988 293.4206 0000910 188.0581 172.0256 15.27566144128424
STARLINK-31641          
1 59374U 24062A   26188.04655852  .00023734  00000+0  71082-3 0  9991
2 59374  53.1593  62.1125 0001382  98.0651 262.0508 15.34423068127926
STARLINK-31430          
1 59375U 24062B   26187.95625135  .00002958  00000+0  98613-4 0  9997
2 59375  53.1575  62.9733 0000917 111.4854 248.6246 15.34408016127912
STARLINK-31695          
1 59376U 24062C   26187.88635391  .00006791  00000+0  21195-3 0  9994
2 59376  53.1595  61.1140 0001155  81.0434 279.0699 15.34398147127899
STARLINK-31716          
1 59377U 24062D   26187.74056824 -.00000700  00000+0 -11525-4 0  9991
2 59377  53.1614  14.0356 0000757  80.3404 279.7682 15.30185131128538
STARLINK-31710          
1 59378U 24062E   26187.87161521  .00004004  00000+0  12954-3 0  9992
2 59378  53.1609  61.0204 0001169  84.4840 275.6296 15.34408092127896
STARLINK-31698          
1 59379U 24062F   26188.05437985  .00001305  00000+0  49692-4 0  9995
2 59379  53.1614  60.0413 0001205  92.5020 267.6120 15.34431383127925
STARLINK-31680          
1 59380U 24062G   26187.92258590  .00009494  00000+0  29167-3 0  9996
2 59380  53.1584  62.7562 0001646  80.6946 279.4243 15.34410029127876
STARLINK-31713          
1 59381U 24062H   26187.91418017  .00006807  00000+0  21243-3 0  9990
2 59381  53.1593  62.7080 0001174  91.7207 268.3930 15.34397702127873
